STARLINK-5676           
1 55464U 23015R   26068.41063908  .00000603  00000+0  59673-4 0  9990
2 55464  43.0036 327.3675 0001322 264.7007  95.3684 15.02537475170719
ION SCV-014             
1 62630U 25009X   26068.71776957  .00001812  00000+0  13229-3 0  9995
2 62630  97.4923 144.8636 0006450 112.6479 247.5430 15.04884649 63025
